SAR-LUPE 2              
1 31797U 07030A   26118.28440201  .00030778  00000+0  65468-3 0  9992
2 31797  98.0997 216.8039 0010084 278.6510  81.3593 15.44880798 49222
SAPPHIRE                
1 39088U 13009C   26118.31549522  .00000113  00000+0  54588-4 0  9998
2 39088  98.4251 298.9580 0011966  42.4567 317.7542 14.35226632689423
PRAETORIAN SDA_602      
1 65565U 25203A   26118.29814705  .00000304  00000+0  26158-3 0  9994
2 65565  81.3039  56.9762 0005715 340.0825  20.0108 13.84335643 31799
PRAETORIAN SDA_603      
1 65566U 25203B   26118.30909472  .00000245  00000+0  20988-3 0  9992
2 65566  81.3044  56.8471 0009289 335.4484  24.6229 13.83898900 31806
PRAETORIAN SDA_604      
1 65567U 25203C   26118.29783608  .00000015  00000+0  28842-5 0  9996
2 65567  81.3061  57.1933 0005503 348.6662  11.4369 13.83038936 31783
PRAETORIAN SDA_605      
1 65568U 25203D   26118.27714221  .00000075  00000+0  57750-4 0  9995
2 65568  81.3027  56.9245 0007889 333.1669  26.9078 13.83427012 31790
PRAETORIAN SDA_606      
1 65569U 25203E   26118.26076024  .00000092  00000+0  72482-4 0  9995
2 65569  81.3064  57.1443 0005629 338.0768  22.0147 13.83534679 31780
PRAETORIAN SDA_607      
1 65570U 25203F   26118.29849382  .00000296  00000+0  25415-3 0  9994
2 65570  81.3048  56.8453 0008630 336.4357  23.6403 13.84319936 31805
PRAETORIAN SDA_608      
1 65571U 25203G   26118.25891065  .00000048  00000+0  32606-4 0  9992
2 65571  81.3015  57.0236 0005963 346.4767  13.6229 13.83808621 31789
PRAETORIAN SDA_609      
1 65572U 25203H   26118.28087197  .00000208  00000+0  17533-3 0  9998
2 65572  81.3056  57.0003 0006649 337.9301  22.1568 13.84303771 31797
PRAETORIAN SDA_610      
1 65573U 25203J   26118.31346304  .00000034  00000+0  20312-4 0  9998
2 65573  81.3017  56.9359 0006360 341.5592  18.5333 13.83914789 31795
PRAETORIAN SDA_611      
1 65574U 25203K   26118.29347895  .00000559  00000+0  49834-3 0  9993
2 65574  81.3015  57.0754 0005642 351.0541   9.0513 13.83302726 31783
PRAETORIAN SDA_612      
1 65575U 25203L   26118.27308007  .00000258  00000+0  21779-3 0  9998
2 65575  81.3037  56.8039 0009045 335.7448  24.3282 13.85030668 31808
PRAETORIAN SDA_613      
1 65576U 25203M   26118.28358790  .00000049  00000+0  33645-4 0  9998
2 65576  81.3008  57.0498 0005598 344.1035  15.9944 13.82946631 31785
PRAETORIAN SDA_614      
1 65577U 25203N   26118.25289908  .00000052  00000+0  35702-4 0  9990
2 65577  81.3023  56.8880 0006893 336.3834  23.7006 13.84770941 31804
PRAETORIAN SDA_615      
1 65578U 25203P   26118.28971144  .00000295  00000+0  25260-3 0  9990
2 65578  81.3033  56.7861 0008762 334.0464  26.0252 13.84428409 31803
PRAETORIAN SDA_616      
1 65579U 25203Q   26118.29218515  .00000259  00000+0  22513-3 0  9996
2 65579  81.3071  57.1912 0005432 350.6328   9.4726 13.83317720 31782
PRAETORIAN SDA_617      
1 65580U 25203R   26118.30930717  .00000059  00000+0  43020-4 0  9990
2 65580  81.3045  57.0109 0007235 336.5629  23.5197 13.83197281 31790
PRAETORIAN SDA_618      
1 65581U 25203S   26118.26664353  .00000228  00000+0  19195-3 0  9999
2 65581  81.3029  56.7617 0009535 335.2649  24.8050 13.84767235 31803
PRAETORIAN SDA_619      
1 65582U 25203T   26118.27225121  .00000211  00000+0  17950-3 0  9996
2 65582  81.3054  56.9761 0007761 334.7244  25.3532 13.83937094 32429
PRAETORIAN SDA_620      
1 65583U 25203U   26118.29022935  .00000337  00000+0  29507-3 0  9997
2 65583  81.3038  56.9660 0007296 331.9012  28.1750 13.83612840 31796
PRAETORIAN SDA_621      
1 65584U 25203V   26118.27056994  .00000061  00000+0  44509-4 0  9992
2 65584  81.3029  56.9214 0007027 330.4520  29.6238 13.83793069 31792
PRAETORIAN SDA_601      
1 65585U 25203W   26118.29432246  .00000603  00000+0  53750-3 0  9992
2 65585  81.3044  57.1456 0005474 350.3635   9.7415 13.83424131 31789
